CAS-2T & KS-1Q          
1 41847U 16066G   20184.16617182  .00000045  00000-0  17108-4 0  9990
2 41847  98.6527 234.8317 0365644 184.9157 174.8402 14.38074453191538
NAYIF-1 (EO-88)         
1 42017U 17008BX  20184.69134111  .00000969  00000-0  39838-4 0  9990
2 42017  97.3592 252.0312 0004444 266.8433  93.2297 15.26533869187875
MAX VALIER SAT          
1 42778U 17036P   20184.19453626  .00000626  00000-0  29828-4 0  9993
2 42778  97.3038 237.4223 0011339 338.5967  21.4794 15.22643373167974
RADFXSAT (FOX-1B)       
1 43017U 17073E   20184.74752470  .00000496  00000-0  44028-4 0  9995
2 43017  97.7224  96.3927 0257072   0.9041 359.2583 14.78956825141423
FOX-1D (AO-92)          
1 43137U 18004AC  20184.19038784  .00000659  00000-0  30026-4 0  9991
2 43137  97.4451 255.2515 0009391  14.8054 345.3456 15.24147815137288
DIWATA-2B               
1 43678U 18084H   20184.63475361  .00000422  00000-0  47659-4 0  9992
2 43678  97.8868 303.0394 0011209 122.9836 237.2466 14.91639610 91282
ES'HAIL 2               
1 43700U 18090A   20184.13226035  .00000138  00000-0  00000+0 0  9990
2 43700   0.0078 323.7613 0001774 163.3914 226.8769  1.00273610  6109
FOX-1CLIFF (AO-95)      
1 43770U 18099N   20184.70201022 -.00000017  00000-0  36970-5 0  9996
2 43770  97.7053 255.8168 0015563 141.5693 218.6639 14.95000198 86194
ITASAT 1                
1 43786U 18099AE  20184.16016176  .00000351  00000-0  36918-4 0  9998
2 43786  97.7070 255.7145 0016347 137.3677 222.8816 14.95338242 86132
JY1SAT (JO-97)          
1 43803U 18099AX  20184.70820954 -.00000205  00000-0 -13292-4 0  9995
2 43803  97.7029 256.0686 0016228 136.1888 224.0624 14.95516173 86210
PSAT2 (NO-104)          
1 44354U 19036R   20184.59145024  .00007766  00000-0  11099-3 0  9993
2 44354  28.5292 281.1767 0364058 112.6802 251.2696 15.03628046 56094
BRICSAT2 (NO-103)       
1 44355U 19036S   20184.61105705  .00015605  00000-0  21611-3 0  9991
2 44355  28.5292 271.5688 0342248 128.2682 234.9216 15.09127710 56191
JAISAT-1                
1 44419U 19038F   20184.63635196  .00000607  00000-0  38117-4 0  9994
2 44419  97.5394 146.0545 0023322  79.0964 281.2890 15.12799923 54897
DUCHIFAT-3              
1 44854U 19089C   20184.81428232  .00000186  00000-0  21431-4 0  9997
2 44854  36.9686   7.5735 0007650 199.0916 160.9586 14.99076870 30600
RS-44 & BREEZE-KM R/B   
1 44909U 19096E   20184.21320287  .00000027  00000-0  62765-4 0  9990
2 44909  82.5216 345.5037 0217215 191.7192 167.8808 12.79708151 24079
ORBITAL FACTORY 2 (OF-2)
1 45113U 19071C   20184.53911625  .00000782  00000-0  35424-4 0  9998
2 45113  51.6445 290.6716 0013500 111.6703 248.5718 15.33398950 23444
HUSKYSAT-1              
1 45119U 19071J   20184.58056691  .00000944  00000-0  40095-4 0  9992
2 45119  51.6443 290.1991 0012801 108.1791 252.0586 15.33612415 23447
